{
"type": "FeatureCollection",
"name": "kepadatan",
"crs": { "type": "name", "properties": { "name": "urn:ogc:def:crs:OGC:1.3:CRS84" } },
"features": [
{ "type": "Feature", "properties": { "Banjar": "KASTALA", "Jiwa_2023": 800, "Area_km2": 0.616, "Densi_2023": 1299 }, "geometry": { "type": "MultiPolygon", "coordinates": [ [ [ [ 115.56104034268877, -8.446298726431118 ], [ 115.561345737092765, -8.446290962166598 ], [ 115.561807761017718, -8.446264932649697 ], [ 115.562198203771175, -8.446212873615902 ], [ 115.562578885455792, -8.446141292444443 ], [ 115.562979089278073, -8.446121770306776 ], [ 115.563564753408244, -8.445669507450686 ], [ 115.564150417538414, -8.445240020421872 ], [ 115.564560382429562, -8.444947188356778 ], [ 115.564911780907693, -8.444602297257894 ], [ 115.565204612972792, -8.44386696340556 ], [ 115.565217627731229, -8.442799753212761 ], [ 115.565490937658652, -8.442877841763453 ], [ 115.565822813999091, -8.443021004106397 ], [ 115.566115646064176, -8.443144644311651 ], [ 115.566388955991613, -8.443313836171479 ], [ 115.566759876607406, -8.442975452451829 ], [ 115.566896531571118, -8.443021004106383 ], [ 115.56860797230712, -8.442025375085075 ], [ 115.568641939262818, -8.442119727739808 ], [ 115.568617733375973, -8.442132746842288 ], [ 115.568634001824037, -8.442842051177733 ], [ 115.568656777651341, -8.443476520652096 ], [ 115.568725105133169, -8.444651102602077 ], [ 115.568767403098121, -8.445630463175338 ], [ 115.56879993999425, -8.446183590409415 ], [ 115.568468063653825, -8.447244293222967 ], [ 115.568435526757725, -8.447517603150398 ], [ 115.568360691896629, -8.447569662184179 ], [ 115.568318393931676, -8.447953597558412 ], [ 115.568276095966709, -8.448415621483344 ], [ 115.568230544312144, -8.448773527340677 ], [ 115.568230544312144, -8.448861376960208 ], [ 115.568041830314641, -8.449512114882641 ], [ 115.567953980695108, -8.449883035498416 ], [ 115.568380214034306, -8.450358074181798 ], [ 115.568702329305893, -8.450735502176803 ], [ 115.569040713025558, -8.451122691240649 ], [ 115.569239188091899, -8.451337434755059 ], [ 115.568959370785237, -8.451578207786357 ], [ 115.568796686304651, -8.451594476234405 ], [ 115.568751134650071, -8.451623759440922 ], [ 115.568331408690113, -8.451929606264464 ], [ 115.568188246347191, -8.45196865053981 ], [ 115.56805159138348, -8.452063007538554 ], [ 115.567914936419754, -8.452163871916532 ], [ 115.567531001045538, -8.45219315512305 ], [ 115.567150319360891, -8.452007694815155 ], [ 115.566948590604937, -8.451877547230666 ], [ 115.566649251160641, -8.451799458679984 ], [ 115.566353165405943, -8.451718116439681 ], [ 115.565965976342085, -8.451584715165575 ], [ 115.5655104597964, -8.451480597097984 ], [ 115.564846707115507, -8.451461074960321 ], [ 115.56455712874002, -8.451496865546037 ], [ 115.564231759778821, -8.45168557954355 ], [ 115.563961703540983, -8.451848264024163 ], [ 115.563792511681172, -8.451952382091743 ], [ 115.563470396409571, -8.451997933746318 ], [ 115.56318081803407, -8.452089037055456 ], [ 115.563070192587261, -8.452124827641196 ], [ 115.562842434314419, -8.452121573951574 ], [ 115.562796882659853, -8.452105305503526 ], [ 115.562722047798758, -8.451887308299511 ], [ 115.562754584694886, -8.451600983613629 ], [ 115.562930283933966, -8.451285375721259 ], [ 115.562966074519665, -8.451064124827635 ], [ 115.562982342967729, -8.450429655353252 ], [ 115.562927030244339, -8.450003422014063 ], [ 115.562910761796275, -8.449791932189273 ], [ 115.562842434314419, -8.449541398089139 ], [ 115.562712286729933, -8.449427518952712 ], [ 115.56239667883753, -8.449268088161723 ], [ 115.562181935323153, -8.449154209025295 ], [ 115.561928147533422, -8.4490208077512 ], [ 115.561732926156679, -8.448851615891368 ], [ 115.561674359743677, -8.448783288409517 ], [ 115.561518182642274, -8.448646633445808 ], [ 115.561391288747416, -8.448565291205499 ], [ 115.561277409610966, -8.448386338276837 ], [ 115.561277409610966, -8.448331025553419 ], [ 115.56117654523301, -8.448223653796218 ], [ 115.561095202992689, -8.448145565245534 ], [ 115.561013860752396, -8.447963358627243 ], [ 115.560935772201702, -8.447849479490825 ], [ 115.560870698409474, -8.447670526562154 ], [ 115.560838161513345, -8.447543632667289 ], [ 115.56084792258217, -8.447289844877531 ], [ 115.560899981615975, -8.447000266502057 ], [ 115.560899981615975, -8.446811552504549 ], [ 115.561000845993959, -8.446603316369375 ], [ 115.561046397648525, -8.446411348682265 ], [ 115.56104034268877, -8.446298726431118 ] ] ] ] } },
{ "type": "Feature", "properties": { "Banjar": "JUNGSRI", "Jiwa_2023": 765, "Area_km2": 0.77, "Densi_2023": 994 }, "geometry": { "type": "MultiPolygon", "coordinates": [ [ [ [ 115.572435277985306, -8.439304173782865 ], [ 115.572440818670188, -8.439282514742025 ], [ 115.572489624014381, -8.439243470466678 ], [ 115.572414789153285, -8.439028726952285 ], [ 115.572362730119522, -8.43885953509244 ], [ 115.572177269811633, -8.438641537888438 ], [ 115.57190395988421, -8.438485360787045 ], [ 115.571614381508738, -8.438394257477912 ], [ 115.571230446134493, -8.438303154168775 ], [ 115.570950628827845, -8.438290139410322 ], [ 115.570651289383548, -8.438277124651862 ], [ 115.570150221183255, -8.43825760251419 ], [ 115.570013566219558, -8.438257602514197 ], [ 115.56985738911817, -8.438133962308934 ], [ 115.569792315325927, -8.437997307345226 ], [ 115.569720734154458, -8.437795578589272 ], [ 115.569707719395993, -8.437691460521691 ], [ 115.56977279318825, -8.437522268661855 ], [ 115.569798822705152, -8.437366091560477 ], [ 115.569759778429798, -8.437255466113651 ], [ 115.569538527536182, -8.437118811149942 ], [ 115.569265217608745, -8.437021200461578 ], [ 115.569037459335902, -8.436936604531665 ], [ 115.568790178925369, -8.436858515980969 ], [ 115.568497346860269, -8.436747890534162 ], [ 115.568295618104329, -8.436637265087349 ], [ 115.568061352452261, -8.436533147019766 ], [ 115.567859623696307, -8.436429028952169 ], [ 115.567618850664999, -8.43644204371062 ], [ 115.56741712190906, -8.436357447780699 ], [ 115.567267452186883, -8.43635094040147 ], [ 115.567137304602397, -8.436285866609236 ], [ 115.566987634880249, -8.436188255920875 ], [ 115.566831457778861, -8.4361166747494 ], [ 115.566740354469715, -8.436097152611728 ], [ 115.566994142259446, -8.435895423855778 ], [ 115.567202378394626, -8.43559283072185 ], [ 115.567544015803918, -8.435091762521582 ], [ 115.567820579420925, -8.434619977527813 ], [ 115.567983263901539, -8.434183983119789 ], [ 115.56800278603923, -8.433689422298732 ], [ 115.56824355907051, -8.433520230438901 ], [ 115.568555913273272, -8.433305486924505 ], [ 115.568907311751403, -8.433084236030881 ], [ 115.569226173333391, -8.432889014654137 ], [ 115.569577571811493, -8.432498571900686 ], [ 115.569870403876592, -8.432264306248618 ], [ 115.570117684287126, -8.432010518458863 ], [ 115.570404008972986, -8.43180228232368 ], [ 115.570729377934214, -8.431607060946961 ], [ 115.570918091931702, -8.431522465017043 ], [ 115.57115235758377, -8.431496435500145 ], [ 115.571315042064384, -8.431476913362477 ], [ 115.571654199297839, -8.431297913711495 ], [ 115.571861661919328, -8.431376048984511 ], [ 115.571972287366137, -8.431502942879391 ], [ 115.571972287366137, -8.43167213473922 ], [ 115.57193649678041, -8.431831565530228 ], [ 115.571916974642747, -8.431961713114708 ], [ 115.572164255053252, -8.432186217697939 ], [ 115.572378998567658, -8.432371678005842 ], [ 115.572593742082063, -8.432537616176058 ], [ 115.572769441321114, -8.432631973174811 ], [ 115.572863798319872, -8.432693793277442 ], [ 115.573094810282342, -8.432739344932008 ], [ 115.57315988407457, -8.432781642896959 ], [ 115.57315988407457, -8.433084236030892 ], [ 115.573228211556426, -8.43312002661663 ], [ 115.573501521483863, -8.433129787685459 ], [ 115.573634922757947, -8.433246920511504 ], [ 115.573641430137172, -8.433500708301256 ], [ 115.573595878482621, -8.433643870644181 ], [ 115.573652818050803, -8.433765884004638 ], [ 115.573774831411271, -8.433933449019673 ], [ 115.573888710547692, -8.434102640879493 ], [ 115.574000962839321, -8.43422302739515 ], [ 115.574165274164727, -8.434340160221183 ], [ 115.574285660680374, -8.43442475615111 ], [ 115.574456479385006, -8.434483322564128 ], [ 115.574627298089666, -8.434561411114815 ], [ 115.574863190586527, -8.434618350683026 ], [ 115.575112097841867, -8.434668782872016 ], [ 115.575232484357528, -8.43470457345774 ], [ 115.575525316422599, -8.434870511627963 ], [ 115.575798626350036, -8.435068986694311 ], [ 115.57593202762412, -8.435140567865767 ], [ 115.575997101416377, -8.435491966343893 ], [ 115.575997101416377, -8.435605845480305 ], [ 115.575964564520248, -8.435739246754398 ], [ 115.57598734034751, -8.43582384268433 ], [ 115.576176054345027, -8.43592796075192 ], [ 115.576407066307496, -8.436090645232525 ], [ 115.576599033994611, -8.436181748541655 ], [ 115.57665434671803, -8.436269598161187 ], [ 115.576791001681713, -8.436549415467828 ], [ 115.57683329964668, -8.436699085189996 ], [ 115.576908134507775, -8.436832486464093 ], [ 115.577064311609149, -8.436991917255082 ], [ 115.577253025606666, -8.437177377562977 ], [ 115.577288816192393, -8.437278241940961 ], [ 115.577337621536586, -8.437356330491655 ], [ 115.577451500673007, -8.43750600021381 ], [ 115.577601170395155, -8.437558059247605 ], [ 115.577861465564126, -8.437606864591775 ], [ 115.578180327146114, -8.437671938384026 ], [ 115.578245400938343, -8.437710982659372 ], [ 115.578512203486554, -8.43791596510493 ], [ 115.578733454380156, -8.438091664343998 ], [ 115.57893518313611, -8.438286885720723 ], [ 115.579032793824496, -8.438404018546754 ], [ 115.57912715082324, -8.438495121855903 ], [ 115.579156434029741, -8.438732641197578 ], [ 115.57922150782197, -8.439067771227633 ], [ 115.579237776270034, -8.439178396674443 ], [ 115.579380938612985, -8.439285768431654 ], [ 115.579026286445256, -8.439341081155053 ], [ 115.578879870412706, -8.439777075563089 ], [ 115.578850587206219, -8.439851910424165 ], [ 115.578860348275072, -8.440043878111277 ], [ 115.578831065068542, -8.44012847404119 ], [ 115.578697663794458, -8.440323695417929 ], [ 115.578704171173669, -8.44035948600367 ], [ 115.578547994072281, -8.440401783968612 ], [ 115.578544740382682, -8.440557961070008 ], [ 115.578466651831988, -8.440977687029974 ], [ 115.578417846487795, -8.441277026474282 ], [ 115.578359280074778, -8.441501531057533 ], [ 115.578287698903281, -8.441719528261538 ], [ 115.578287698903281, -8.44194403284477 ], [ 115.578196595594164, -8.442100209946162 ], [ 115.578128268112295, -8.442223850151418 ], [ 115.578108745974632, -8.442529696974963 ], [ 115.578037164803177, -8.442825782729667 ], [ 115.577903763529065, -8.442799753212773 ], [ 115.577783377013404, -8.442816021660834 ], [ 115.577549111361336, -8.442737933110141 ], [ 115.577318099398894, -8.442669605628286 ], [ 115.577132639090976, -8.4425915170776 ], [ 115.576898373438937, -8.442477637941174 ], [ 115.576550228650447, -8.44224662597871 ], [ 115.576234620758044, -8.44200910663703 ], [ 115.575652210317486, -8.441576365918602 ], [ 115.575219469599062, -8.441208698992428 ], [ 115.574965681809331, -8.440854046824709 ], [ 115.574786728880653, -8.44056772213885 ], [ 115.574575239055847, -8.440356232314057 ], [ 115.573882203168452, -8.440115459282749 ], [ 115.573446208760416, -8.439949521112526 ], [ 115.573107825040751, -8.439809612459202 ], [ 115.572821500354891, -8.439679464874718 ], [ 115.572704367528829, -8.439624152151318 ], [ 115.572496131393677, -8.439438691843421 ], [ 115.572435277985306, -8.439304173782865 ] ] ] ] } },
{ "type": "Feature", "properties": { "Banjar": "KAYUPUTIH", "Jiwa_2023": 755, "Area_km2": 0.471, "Densi_2023": 1603 }, "geometry": { "type": "MultiPolygon", "coordinates": [ [ [ [ 115.565217300633407, -8.44282657523304 ], [ 115.565084226457088, -8.442754201558181 ], [ 115.56490527352841, -8.442750947868573 ], [ 115.564775125943925, -8.442679366697112 ], [ 115.564667754186701, -8.442617546594475 ], [ 115.564514830774954, -8.442545965423005 ], [ 115.564365161052805, -8.44234098297744 ], [ 115.56429683357095, -8.442129493152656 ], [ 115.564251281916356, -8.441937525465539 ], [ 115.564147163848773, -8.441839914777173 ], [ 115.563909644507092, -8.441677230296559 ], [ 115.563701408371884, -8.44156009747052 ], [ 115.563398815237989, -8.441410427748371 ], [ 115.563216608619697, -8.441361622404186 ], [ 115.562985596657228, -8.441283533853502 ], [ 115.562855449072742, -8.441221713750869 ], [ 115.562715540419433, -8.441049268201418 ], [ 115.562595153903771, -8.440854046824693 ], [ 115.562565870697284, -8.440775958273992 ], [ 115.561560480607127, -8.440167518316533 ], [ 115.561137500957514, -8.439969043250182 ], [ 115.560730789755993, -8.439760807115004 ], [ 115.560636432757263, -8.439676211185084 ], [ 115.560594134792311, -8.439559078359059 ], [ 115.560538822068892, -8.439399647568058 ], [ 115.560424942932443, -8.439230455708229 ], [ 115.560330585933713, -8.439038488021119 ], [ 115.5601971846596, -8.438846520334002 ], [ 115.560171155142697, -8.438820490817088 ], [ 115.560509538862362, -8.438579717785803 ], [ 115.560711267618302, -8.43855368826889 ], [ 115.561111471440626, -8.438443062822081 ], [ 115.561462869918714, -8.438286885720705 ], [ 115.56179799994878, -8.438251095134968 ], [ 115.562240501736028, -8.43820228979078 ], [ 115.562634198179111, -8.438173006584277 ], [ 115.562842434314291, -8.438146977067372 ], [ 115.563109236862488, -8.438202289790794 ], [ 115.563437859513314, -8.438221811928461 ], [ 115.563789257991445, -8.438251095134977 ], [ 115.564134149090336, -8.438127454929715 ], [ 115.565051689560931, -8.437756534313918 ], [ 115.565279447833774, -8.437723997417795 ], [ 115.566203495683638, -8.43768495314246 ], [ 115.566672026987774, -8.437730504797017 ], [ 115.567335779668667, -8.437769549072362 ], [ 115.567583060079201, -8.437795578589268 ], [ 115.567947473315755, -8.437912711415308 ], [ 115.568422511999131, -8.438094918033586 ], [ 115.568767403098022, -8.438225065618072 ], [ 115.569105786817687, -8.438335691064884 ], [ 115.5695613033634, -8.438491868166274 ], [ 115.570036342046777, -8.438654552646875 ], [ 115.570511380730153, -8.43881072974826 ], [ 115.570986419413501, -8.438966906849641 ], [ 115.571324803133166, -8.439077532296453 ], [ 115.571637157335957, -8.439220694639388 ], [ 115.571929989401028, -8.439376871740762 ], [ 115.572151240294659, -8.439448452912242 ], [ 115.57221120031663, -8.439503416265712 ], [ 115.571432174890504, -8.440206562591895 ], [ 115.570840003381079, -8.440808495170129 ], [ 115.570127445356036, -8.441273772784676 ], [ 115.569434409468641, -8.441693498744636 ], [ 115.568641939262818, -8.442119727739808 ], [ 115.56860797230712, -8.442025375085075 ], [ 115.566896531571118, -8.443021004106383 ], [ 115.566759876607406, -8.442975452451829 ], [ 115.566388955991613, -8.443313836171479 ], [ 115.566115646064176, -8.443144644311651 ], [ 115.565822813999091, -8.443021004106397 ], [ 115.565490937658652, -8.442877841763453 ], [ 115.565217627731229, -8.442799753212761 ], [ 115.565217300633407, -8.44282657523304 ] ] ] ] } },
{ "type": "Feature", "properties": { "Banjar": "TOHPATI", "Jiwa_2023": 522, "Area_km2": 0.452, "Densi_2023": 1155 }, "geometry": { "type": "MultiPolygon", "coordinates": [ [ [ [ 115.566750302324436, -8.436089245342583 ], [ 115.56665575853971, -8.436087391542889 ], [ 115.566476805611032, -8.436028825129872 ], [ 115.566229525200526, -8.435778291029733 ], [ 115.566053825961461, -8.435439907310077 ], [ 115.565852097205507, -8.435400863034733 ], [ 115.565682905345696, -8.435335789242483 ], [ 115.565565772519648, -8.435283730208695 ], [ 115.565552757761211, -8.435231671174904 ], [ 115.565533235623519, -8.435062479315066 ], [ 115.565487683968954, -8.434984390764374 ], [ 115.565409595418259, -8.434906302213676 ], [ 115.565272940454548, -8.434873765317553 ], [ 115.565142792870063, -8.434867257938331 ], [ 115.565006137906337, -8.434906302213678 ], [ 115.564739335358169, -8.434945346489027 ], [ 115.564511577085298, -8.434958361247471 ], [ 115.564355399983924, -8.434951853868247 ], [ 115.564179700744873, -8.434951853868245 ], [ 115.56403003102271, -8.434815198904532 ], [ 115.563925912955099, -8.434743617733076 ], [ 115.563808780129079, -8.434457293047199 ], [ 115.56368513992382, -8.434105894569084 ], [ 115.563522455443206, -8.433591811610366 ], [ 115.563411829996397, -8.433285964786824 ], [ 115.563340248824929, -8.432986625342513 ], [ 115.563275175032672, -8.432739344931999 ], [ 115.563145027448186, -8.432413975970771 ], [ 115.563027894622167, -8.432186217697923 ], [ 115.563340248824929, -8.432030040596539 ], [ 115.563554992339334, -8.431886878253607 ], [ 115.563646095648494, -8.431737208531445 ], [ 115.563964957230468, -8.431502942879368 ], [ 115.564127641711067, -8.431346765777979 ], [ 115.56424477453713, -8.431223125572728 ], [ 115.564407459017715, -8.431099485367461 ], [ 115.564550621360652, -8.430995367299886 ], [ 115.564641724669812, -8.430761101647802 ], [ 115.564739335358198, -8.430722057372444 ], [ 115.56485321449459, -8.430673252028273 ], [ 115.56489063192511, -8.430606551391216 ], [ 115.564887378235511, -8.430513821237284 ], [ 115.564895512459529, -8.430385300497598 ], [ 115.564906900373174, -8.430292570343655 ], [ 115.564955705717367, -8.430263287137137 ], [ 115.565027286888821, -8.43025515291311 ], [ 115.565092360681049, -8.430222616016994 ], [ 115.565097241215497, -8.430170556983194 ], [ 115.565058196940143, -8.430098975811729 ], [ 115.565019152664803, -8.430014379881818 ], [ 115.564968720475818, -8.429942798710341 ], [ 115.564952452027754, -8.429910261814221 ], [ 115.565471415520889, -8.429645086110835 ], [ 115.565975737410767, -8.429653220334867 ], [ 115.56615957087385, -8.429632071352387 ], [ 115.566349911716173, -8.429562117025721 ], [ 115.5665158498864, -8.429456372113327 ], [ 115.566668773298176, -8.429360388269773 ], [ 115.566781025589776, -8.429295314477525 ], [ 115.566972993276892, -8.429241628598936 ], [ 115.567080365034116, -8.429204211168388 ], [ 115.567311376996557, -8.429070809894295 ], [ 115.567511478907718, -8.428942289154609 ], [ 115.567589567458398, -8.428813768414933 ], [ 115.567814072041614, -8.428457489402401 ], [ 115.567844982092964, -8.428379400851711 ], [ 115.567823833110481, -8.428154896268479 ], [ 115.567791296214352, -8.427941779598868 ], [ 115.567773400921467, -8.427749811911761 ], [ 115.567791296214352, -8.427622918016882 ], [ 115.567849862627369, -8.427448845622637 ], [ 115.567914936419598, -8.427284534297222 ], [ 115.567944219626099, -8.427165774626387 ], [ 115.567986517591095, -8.427066537093213 ], [ 115.568080874589825, -8.426991702232124 ], [ 115.568163843674952, -8.426959165336012 ], [ 115.568259827518503, -8.426903852612593 ], [ 115.568346050293201, -8.426859927802839 ], [ 115.568408883317645, -8.426819390367713 ], [ 115.568659217918537, -8.427090939765311 ], [ 115.568857692984878, -8.427336593331034 ], [ 115.568940662069977, -8.427435830864191 ], [ 115.569200143816573, -8.42761153010326 ], [ 115.569375843055639, -8.42788158634106 ], [ 115.569815091153259, -8.428281790163355 ], [ 115.569925716600082, -8.428415191437457 ], [ 115.570088401080696, -8.428724291950621 ], [ 115.570186011769053, -8.42907243673911 ], [ 115.57018926545868, -8.429355507735369 ], [ 115.570156728562552, -8.429466133182192 ], [ 115.570055864184596, -8.429602788145891 ], [ 115.570046103115729, -8.429671115627759 ], [ 115.57022180235478, -8.429879351762937 ], [ 115.570540663936811, -8.430165676448798 ], [ 115.570879047656462, -8.430308838791731 ], [ 115.571044985826688, -8.430478030651553 ], [ 115.571275997789158, -8.430692774165964 ], [ 115.571380115856741, -8.430842443888126 ], [ 115.571471219165872, -8.43097909885183 ], [ 115.57155906878539, -8.43107996322982 ], [ 115.571572083543856, -8.431255662468869 ], [ 115.571611127819182, -8.43128169198577 ], [ 115.571654199297839, -8.431297913711495 ], [ 115.571315042064384, -8.431476913362477 ], [ 115.57115235758377, -8.431496435500145 ], [ 115.570918091931702, -8.431522465017043 ], [ 115.570729377934214, -8.431607060946961 ], [ 115.570404008972986, -8.43180228232368 ], [ 115.570117684287126, -8.432010518458863 ], [ 115.569870403876592, -8.432264306248618 ], [ 115.569577571811493, -8.432498571900686 ], [ 115.569226173333391, -8.432889014654137 ], [ 115.568907311751403, -8.433084236030881 ], [ 115.568555913273272, -8.433305486924505 ], [ 115.56824355907051, -8.433520230438901 ], [ 115.56800278603923, -8.433689422298732 ], [ 115.567983263901539, -8.434183983119789 ], [ 115.567820579420925, -8.434619977527813 ], [ 115.567544015803918, -8.435091762521582 ], [ 115.567202378394626, -8.43559283072185 ], [ 115.566994142259446, -8.435895423855778 ], [ 115.566750302324436, -8.436089245342583 ] ] ] ] } },
{ "type": "Feature", "properties": { "Banjar": "PANDESARI", "Jiwa_2023": 852, "Area_km2": 0.34, "Densi_2023": 2506 }, "geometry": { "type": "MultiPolygon", "coordinates": [ [ [ [ 115.558965646872934, -8.436312010005178 ], [ 115.558976237632606, -8.436272038428385 ], [ 115.558897335659481, -8.436177681429632 ], [ 115.558736278023687, -8.436006049302591 ], [ 115.558482490233942, -8.435786425253779 ], [ 115.558933126245208, -8.435609099169907 ], [ 115.559696116459278, -8.435291864432726 ], [ 115.560150006160171, -8.436191509610479 ], [ 115.560517673086338, -8.435975139251276 ], [ 115.560701506549421, -8.435861260114848 ], [ 115.561002472838567, -8.435760395736878 ], [ 115.561526316866107, -8.435496846878292 ], [ 115.561991594480659, -8.435246312778155 ], [ 115.56227466547692, -8.435090135676777 ], [ 115.562587019679682, -8.434839601576638 ], [ 115.562840807469428, -8.434634619131062 ], [ 115.563104356328026, -8.434416621927058 ], [ 115.563403695772323, -8.434179102585361 ], [ 115.563650199405728, -8.43399548253192 ], [ 115.56368513992382, -8.434105894569084 ], [ 115.563808780129079, -8.434457293047199 ], [ 115.563925912955099, -8.434743617733076 ], [ 115.56403003102271, -8.434815198904532 ], [ 115.564179700744873, -8.434951853868245 ], [ 115.564355399983924, -8.434951853868247 ], [ 115.564511577085298, -8.434958361247471 ], [ 115.564739335358169, -8.434945346489027 ], [ 115.565006137906337, -8.434906302213678 ], [ 115.565142792870063, -8.434867257938331 ], [ 115.565272940454548, -8.434873765317553 ], [ 115.565409595418259, -8.434906302213676 ], [ 115.565487683968954, -8.434984390764374 ], [ 115.565533235623519, -8.435062479315066 ], [ 115.565552757761211, -8.435231671174904 ], [ 115.565565772519648, -8.435283730208695 ], [ 115.565682905345696, -8.435335789242483 ], [ 115.565852097205507, -8.435400863034733 ], [ 115.566053825961461, -8.435439907310077 ], [ 115.566229525200526, -8.435778291029733 ], [ 115.566476805611032, -8.436028825129872 ], [ 115.56665575853971, -8.436087391542889 ], [ 115.566750302324436, -8.436089245342583 ], [ 115.566740354469715, -8.436097152611728 ], [ 115.566831457778861, -8.4361166747494 ], [ 115.566987634880249, -8.436188255920875 ], [ 115.567137304602397, -8.436285866609236 ], [ 115.567267452186883, -8.43635094040147 ], [ 115.56741712190906, -8.436357447780699 ], [ 115.567618850664999, -8.43644204371062 ], [ 115.567859623696307, -8.436429028952169 ], [ 115.568061352452261, -8.436533147019766 ], [ 115.568295618104329, -8.436637265087349 ], [ 115.568497346860269, -8.436747890534162 ], [ 115.568790178925369, -8.436858515980969 ], [ 115.569037459335902, -8.436936604531665 ], [ 115.569265217608745, -8.437021200461578 ], [ 115.569538527536182, -8.437118811149942 ], [ 115.569759778429798, -8.437255466113651 ], [ 115.569798822705152, -8.437366091560477 ], [ 115.56977279318825, -8.437522268661855 ], [ 115.569707719395993, -8.437691460521691 ], [ 115.569720734154458, -8.437795578589272 ], [ 115.569792315325927, -8.437997307345226 ], [ 115.56985738911817, -8.438133962308934 ], [ 115.570013566219558, -8.438257602514197 ], [ 115.570150221183255, -8.43825760251419 ], [ 115.570651289383548, -8.438277124651862 ], [ 115.570950628827845, -8.438290139410322 ], [ 115.571230446134493, -8.438303154168775 ], [ 115.571614381508738, -8.438394257477912 ], [ 115.57190395988421, -8.438485360787045 ], [ 115.572177269811633, -8.438641537888438 ], [ 115.572362730119522, -8.43885953509244 ], [ 115.572414789153285, -8.439028726952285 ], [ 115.572489624014381, -8.439243470466678 ], [ 115.572440818670188, -8.439282514742025 ], [ 115.572435277985306, -8.439304173782865 ], [ 115.572434311291033, -8.439302036879713 ], [ 115.57221120031663, -8.439503416265712 ], [ 115.572151240294659, -8.439448452912242 ], [ 115.571929989401028, -8.439376871740762 ], [ 115.571637157335957, -8.439220694639388 ], [ 115.571324803133166, -8.439077532296453 ], [ 115.570986419413501, -8.438966906849641 ], [ 115.570511380730153, -8.43881072974826 ], [ 115.570036342046777, -8.438654552646875 ], [ 115.5695613033634, -8.438491868166274 ], [ 115.569105786817687, -8.438335691064884 ], [ 115.568767403098022, -8.438225065618072 ], [ 115.568422511999131, -8.438094918033586 ], [ 115.567947473315755, -8.437912711415308 ], [ 115.567583060079201, -8.437795578589268 ], [ 115.567335779668667, -8.437769549072362 ], [ 115.566672026987774, -8.437730504797017 ], [ 115.566203495683638, -8.43768495314246 ], [ 115.565279447833774, -8.437723997417795 ], [ 115.565051689560931, -8.437756534313918 ], [ 115.564134149090336, -8.438127454929715 ], [ 115.563789257991445, -8.438251095134977 ], [ 115.563437859513314, -8.438221811928461 ], [ 115.563109236862488, -8.438202289790794 ], [ 115.562842434314291, -8.438146977067372 ], [ 115.562634198179111, -8.438173006584277 ], [ 115.562240501736028, -8.43820228979078 ], [ 115.56179799994878, -8.438251095134968 ], [ 115.561462869918714, -8.438286885720705 ], [ 115.561111471440626, -8.438443062822081 ], [ 115.560711267618302, -8.43855368826889 ], [ 115.560509538862362, -8.438579717785803 ], [ 115.560176251283053, -8.438816864717239 ], [ 115.560135364556942, -8.438799341834621 ], [ 115.560093066591989, -8.438716372749507 ], [ 115.559933635800945, -8.438467465494188 ], [ 115.559780712389198, -8.43824296091093 ], [ 115.559673340631974, -8.43809329118878 ], [ 115.559595252081294, -8.437956636225074 ], [ 115.559526924599425, -8.437819981261365 ], [ 115.55950740246179, -8.43766055047036 ], [ 115.55950740246179, -8.437517388127425 ], [ 115.559520417220227, -8.437416523749459 ], [ 115.559526924599425, -8.437286376164975 ], [ 115.559513909840987, -8.437224556062331 ], [ 115.559448836048759, -8.437169243338927 ], [ 115.559286151568173, -8.437079766874602 ], [ 115.559185287190189, -8.437011439392746 ], [ 115.559154377138881, -8.436882918653065 ], [ 115.559108825484316, -8.436809710636792 ], [ 115.559045378536879, -8.436658414069816 ], [ 115.559027483244023, -8.436572191295102 ], [ 115.559025856399202, -8.436477834296348 ], [ 115.558993319503074, -8.43644692424504 ], [ 115.558960782606945, -8.436346059867049 ], [ 115.558965646872934, -8.436312010005178 ] ] ] ] } },
{ "type": "Feature", "properties": { "Banjar": "DESA TENGAH", "Jiwa_2023": 1374, "Area_km2": 0.829, "Densi_2023": 1657 }, "geometry": { "type": "MultiPolygon", "coordinates": [ [ [ [ 115.552069742458656, -8.440411142138052 ], [ 115.552238659868237, -8.43887580354051 ], [ 115.553003276927086, -8.438277124651862 ], [ 115.554210395773183, -8.438049366379023 ], [ 115.55503032555545, -8.438625269440362 ], [ 115.555820972131187, -8.439176769829627 ], [ 115.556048730404058, -8.438989682676924 ], [ 115.556188639057382, -8.438895325678171 ], [ 115.556331801400304, -8.438784700231357 ], [ 115.556522142242628, -8.438635030509204 ], [ 115.556709229395324, -8.438486987631865 ], [ 115.556831242755791, -8.438407272236352 ], [ 115.556990673546764, -8.438268990427844 ], [ 115.557237953957284, -8.43804123215499 ], [ 115.557649545693238, -8.437610118281384 ], [ 115.557890318724546, -8.437362837870852 ], [ 115.558105062238923, -8.437144840666848 ], [ 115.558215687685745, -8.437026080996002 ], [ 115.558378372166359, -8.436874784429037 ], [ 115.558640294180137, -8.436612862415258 ], [ 115.558897335659537, -8.436344433022251 ], [ 115.558968916830977, -8.436289120298847 ], [ 115.558960782606945, -8.436346059867049 ], [ 115.558993319503074, -8.43644692424504 ], [ 115.559025856399202, -8.436477834296348 ], [ 115.559027483244023, -8.436572191295102 ], [ 115.559045378536879, -8.436658414069816 ], [ 115.559108825484316, -8.436809710636792 ], [ 115.559154377138881, -8.436882918653065 ], [ 115.559185287190189, -8.437011439392746 ], [ 115.559286151568173, -8.437079766874602 ], [ 115.559448836048759, -8.437169243338927 ], [ 115.559513909840987, -8.437224556062331 ], [ 115.559526924599425, -8.437286376164975 ], [ 115.559520417220227, -8.437416523749459 ], [ 115.55950740246179, -8.437517388127425 ], [ 115.55950740246179, -8.43766055047036 ], [ 115.559526924599425, -8.437819981261365 ], [ 115.559595252081294, -8.437956636225074 ], [ 115.559673340631974, -8.43809329118878 ], [ 115.559780712389198, -8.43824296091093 ], [ 115.559933635800945, -8.438467465494188 ], [ 115.560093066591989, -8.438716372749507 ], [ 115.560135364556942, -8.438799341834621 ], [ 115.560176251283053, -8.438816864717239 ], [ 115.560171155142697, -8.438820490817088 ], [ 115.5601971846596, -8.438846520334002 ], [ 115.560330585933713, -8.439038488021119 ], [ 115.560424942932443, -8.439230455708229 ], [ 115.560538822068892, -8.439399647568058 ], [ 115.560594134792311, -8.439559078359059 ], [ 115.560636432757263, -8.439676211185084 ], [ 115.560730789755993, -8.439760807115004 ], [ 115.561137500957514, -8.439969043250182 ], [ 115.561560480607127, -8.440167518316533 ], [ 115.562565870697284, -8.440775958273992 ], [ 115.562595153903771, -8.440854046824693 ], [ 115.562715540419433, -8.441049268201418 ], [ 115.562855449072742, -8.441221713750869 ], [ 115.562985596657228, -8.441283533853502 ], [ 115.563216608619697, -8.441361622404186 ], [ 115.563398815237989, -8.441410427748371 ], [ 115.563701408371884, -8.44156009747052 ], [ 115.563909644507092, -8.441677230296559 ], [ 115.564147163848773, -8.441839914777173 ], [ 115.564251281916356, -8.441937525465539 ], [ 115.56429683357095, -8.442129493152656 ], [ 115.564365161052805, -8.44234098297744 ], [ 115.564514830774954, -8.442545965423005 ], [ 115.564667754186701, -8.442617546594475 ], [ 115.564775125943925, -8.442679366697112 ], [ 115.56490527352841, -8.442750947868573 ], [ 115.565084226457088, -8.442754201558181 ], [ 115.565217300633407, -8.44282657523304 ], [ 115.565204612972792, -8.44386696340556 ], [ 115.564911780907693, -8.444602297257894 ], [ 115.564560382429562, -8.444947188356778 ], [ 115.564150417538414, -8.445240020421872 ], [ 115.563564753408244, -8.445669507450686 ], [ 115.562979089278073, -8.446121770306776 ], [ 115.562578885455792, -8.446141292444443 ], [ 115.562198203771175, -8.446212873615902 ], [ 115.561807761017718, -8.446264932649697 ], [ 115.561345737092765, -8.446290962166598 ], [ 115.56104034268877, -8.446298726431118 ], [ 115.561030129200461, -8.446108755548325 ], [ 115.560851176271782, -8.445692283277973 ], [ 115.560603895861277, -8.445308347903733 ], [ 115.560395659726098, -8.444999247390591 ], [ 115.560210199418194, -8.444830055530756 ], [ 115.559959665318047, -8.44463158046441 ], [ 115.559500895082735, -8.444647848912464 ], [ 115.559175526121507, -8.444716176394325 ], [ 115.558983558434392, -8.444774742807336 ], [ 115.558710248506998, -8.444917905150287 ], [ 115.55846947547569, -8.445093604389335 ], [ 115.558316552063914, -8.445223751973813 ], [ 115.55806927165338, -8.44546777869474 ], [ 115.557896826103956, -8.445552374624652 ], [ 115.557626769866118, -8.44558816521039 ], [ 115.557464085385519, -8.445588165210392 ], [ 115.557220058664612, -8.445471032384351 ], [ 115.557018329908658, -8.445158678181576 ], [ 115.556933733978738, -8.444999247390589 ], [ 115.55677755687735, -8.444914651460664 ], [ 115.556536783846084, -8.444735698531996 ], [ 115.556357830917406, -8.44458928249945 ], [ 115.556120311575725, -8.444332241020083 ], [ 115.555999925060078, -8.443993857300432 ], [ 115.555977149232774, -8.443548101823559 ], [ 115.555941358647019, -8.443274791896147 ], [ 115.55588279223403, -8.44302425779601 ], [ 115.555755898339143, -8.442858319625788 ], [ 115.555524886376702, -8.442637068732155 ], [ 115.555345933448024, -8.442545965423017 ], [ 115.555196263725875, -8.442578502319142 ], [ 115.555098653037504, -8.442656590869825 ], [ 115.554909939040002, -8.442721664662072 ], [ 115.554691941835998, -8.442763962627032 ], [ 115.554532511044982, -8.44273467942052 ], [ 115.554291738013703, -8.442585009698366 ], [ 115.554099770326559, -8.442412564148913 ], [ 115.553937085845959, -8.442282416564442 ], [ 115.553686551745841, -8.442028628774683 ], [ 115.553641000091247, -8.441979823430506 ], [ 115.553426256576842, -8.441931018086317 ], [ 115.553289601613159, -8.441898481190202 ], [ 115.553081365477979, -8.441826900018741 ], [ 115.552840592446671, -8.441703259813478 ], [ 115.552648624759556, -8.441530814264032 ], [ 115.552472925520519, -8.441312817060012 ], [ 115.552297226281439, -8.441091566166397 ], [ 115.552170332386552, -8.440951657513063 ], [ 115.552098751215098, -8.440411545037454 ], [ 115.552069742458656, -8.440411142138052 ] ] ] ] } },
{ "type": "Feature", "properties": { "Banjar": "TIHINGAN KAUH", "Jiwa_2023": 961, "Area_km2": 1.045, "Densi_2023": 920 }, "geometry": { "type": "MultiPolygon", "coordinates": [ [ [ [ 115.550269772107015, -8.423502708242266 ], [ 115.550169855556476, -8.423568278478553 ], [ 115.550182870314941, -8.423683242178184 ], [ 115.550048384477634, -8.423932691715127 ], [ 115.549942097283633, -8.424177802999239 ], [ 115.549805442319894, -8.424496664581239 ], [ 115.549640588712904, -8.424832879174485 ], [ 115.549770736297404, -8.425513984866642 ], [ 115.549172057408754, -8.425856706839118 ], [ 115.548772938149654, -8.426073619479933 ], [ 115.548451907441247, -8.426260164351024 ], [ 115.547853228552626, -8.426581195059427 ], [ 115.547957346620208, -8.426867519745306 ], [ 115.548178597513854, -8.427223256476232 ], [ 115.548343451120871, -8.427526934173379 ], [ 115.548525657739148, -8.427813258859246 ], [ 115.548668820082071, -8.428056201016947 ], [ 115.548660143576456, -8.428429290759142 ], [ 115.548725217368684, -8.428589806113344 ], [ 115.548946468262315, -8.428776350984451 ], [ 115.54940632306085, -8.429175470243536 ], [ 115.549757721538981, -8.429544221732922 ], [ 115.550117796522713, -8.429991061772988 ], [ 115.550330370910714, -8.430325107239844 ], [ 115.550499562770554, -8.430533343375012 ], [ 115.550647063366299, -8.430884741853134 ], [ 115.550703460652912, -8.431179743044629 ], [ 115.550855299501464, -8.431561509292463 ], [ 115.551007138350059, -8.431947613793104 ], [ 115.551224050990854, -8.432307688776865 ], [ 115.551406257609131, -8.432580998704271 ], [ 115.551640523261227, -8.432776220081008 ], [ 115.551801038615409, -8.432936735435215 ], [ 115.551900818430198, -8.433153648076013 ], [ 115.552056995531558, -8.433574458599203 ], [ 115.552208834380139, -8.433999607375188 ], [ 115.552382364492786, -8.434455123920891 ], [ 115.552434423526577, -8.434628654033535 ], [ 115.552451776537836, -8.434914978719418 ], [ 115.552447438285014, -8.435439907310172 ], [ 115.552425747020933, -8.435830350063643 ], [ 115.552447438285014, -8.43609498348542 ], [ 115.552521188582887, -8.436324910884679 ], [ 115.552616630144854, -8.436520132261407 ], [ 115.552772807246228, -8.436988663565563 ], [ 115.553037440668021, -8.437730504797139 ], [ 115.553089499701827, -8.437869328887263 ], [ 115.553054793679308, -8.438103594539344 ], [ 115.552997743352421, -8.438281457323086 ], [ 115.552238659868237, -8.43887580354051 ], [ 115.552069742458656, -8.440411142138052 ], [ 115.55186448556303, -8.440408291347845 ], [ 115.551392700569281, -8.440414798727055 ], [ 115.551151927537973, -8.440385515520559 ], [ 115.550888378679375, -8.440209816281495 ], [ 115.550696410992259, -8.440095937145076 ], [ 115.550559756028548, -8.439936506354076 ], [ 115.550576024476612, -8.439738031287735 ], [ 115.550680142544223, -8.43946797504992 ], [ 115.550715933129922, -8.43931830532776 ], [ 115.550728947888388, -8.438979921608111 ], [ 115.550680142544195, -8.438582971475427 ], [ 115.550605307683128, -8.43839425747792 ], [ 115.55048817485708, -8.438257602514213 ], [ 115.550292953480337, -8.438192528721972 ], [ 115.550016389863316, -8.438104679102429 ], [ 115.549769109452797, -8.438039605310189 ], [ 115.549505560594199, -8.437948502001047 ], [ 115.549255026494095, -8.437896442967252 ], [ 115.549020760841998, -8.437808593347727 ], [ 115.548890613257512, -8.437785817520449 ], [ 115.54874745091459, -8.437616625660606 ], [ 115.5485945275028, -8.43698866356546 ], [ 115.548477394676752, -8.43691057501478 ], [ 115.548197577370118, -8.436751144223788 ], [ 115.547989341234938, -8.436363955159942 ], [ 115.547833164133564, -8.436032078819499 ], [ 115.54769325548024, -8.435921453372687 ], [ 115.547485019345061, -8.435849872201224 ], [ 115.547345110691751, -8.435827096373927 ], [ 115.547166157763073, -8.435651397134869 ], [ 115.547091322901977, -8.43542038517241 ], [ 115.546970936386359, -8.435322774484053 ], [ 115.546733417044649, -8.435111284659261 ], [ 115.546528434599111, -8.434922570661744 ], [ 115.546430823910725, -8.43474361773308 ], [ 115.546365750118497, -8.434574425873258 ], [ 115.54632995953277, -8.434079865052201 ], [ 115.546307183705466, -8.433663392781849 ], [ 115.546251870982076, -8.433526737818145 ], [ 115.54644709235879, -8.433168831960806 ], [ 115.546434077600324, -8.432651495312475 ], [ 115.546212826706721, -8.432140666043361 ], [ 115.546124977087189, -8.431945444666626 ], [ 115.545845159780555, -8.431502942879376 ], [ 115.54603712746767, -8.431405332191021 ], [ 115.546512166151047, -8.431076709540186 ], [ 115.546274646809337, -8.430640715132167 ], [ 115.546196558258657, -8.429937918175927 ], [ 115.546147752914464, -8.42951168483674 ], [ 115.545991575813105, -8.428922767016946 ], [ 115.545806115505201, -8.428441220954348 ], [ 115.545643431024558, -8.428021494994388 ], [ 115.544934126689114, -8.426667960115729 ], [ 115.544166255940652, -8.425255858824043 ], [ 115.543548054914353, -8.424065008426 ], [ 115.54330077450382, -8.423602984501079 ], [ 115.542904843183976, -8.421733669417115 ], [ 115.542949918307045, -8.421675715687487 ], [ 115.543155985315806, -8.421670292871465 ], [ 115.543768763526103, -8.421577020435905 ], [ 115.544345751150658, -8.421425181587331 ], [ 115.544948768292102, -8.42127334273877 ], [ 115.545916198670142, -8.420553192771273 ], [ 115.546931637598234, -8.419782582991855 ], [ 115.547096203436197, -8.42004588833259 ], [ 115.547369513363606, -8.42041355525877 ], [ 115.547613540084512, -8.420690118875804 ], [ 115.547763209806689, -8.420882086562921 ], [ 115.548134130422454, -8.421591390898357 ], [ 115.548313083351132, -8.421874461894625 ], [ 115.548479021521345, -8.422160786580488 ], [ 115.548563617451265, -8.422313709992267 ], [ 115.548771853586445, -8.422469887093643 ], [ 115.548941045446256, -8.422587019919687 ], [ 115.549077700409967, -8.422837554019821 ], [ 115.549224116442517, -8.422931911018562 ], [ 115.549445367336133, -8.423068565982284 ], [ 115.549832556399991, -8.423250772600566 ], [ 115.550079836810525, -8.423397188633109 ], [ 115.550269772107015, -8.423502708242266 ] ] ] ] } },
{ "type": "Feature", "properties": { "Banjar": "LILIGUNDI", "Jiwa_2023": 1100, "Area_km2": 1.482, "Densi_2023": 742 }, "geometry": { "type": "MultiPolygon", "coordinates": [ [ [ [ 115.563031411236139, -8.432184459390935 ], [ 115.563017320130854, -8.432171576094673 ], [ 115.563005118794791, -8.432118703638464 ], [ 115.562979089277903, -8.432008078191659 ], [ 115.562904254416807, -8.431822617883773 ], [ 115.562809897418063, -8.431591605921311 ], [ 115.56269927197124, -8.43131178861465 ], [ 115.562595153903658, -8.431022210239179 ], [ 115.562406439906141, -8.430462575625887 ], [ 115.56222748697752, -8.429909448391827 ], [ 115.562151025271618, -8.429706092791063 ], [ 115.562072936720924, -8.429403499657132 ], [ 115.562006236083874, -8.429231054107685 ], [ 115.561856566361726, -8.428977266317945 ], [ 115.561715030863596, -8.42872185168339 ], [ 115.56150028734919, -8.428546152444325 ], [ 115.561334349178978, -8.428458302824806 ], [ 115.561109844595734, -8.428393229032563 ], [ 115.560810505151409, -8.428370453205272 ], [ 115.560517673086309, -8.428341169998761 ], [ 115.560241109469303, -8.428334662619537 ], [ 115.559866935163882, -8.42825332037923 ], [ 115.559557834650747, -8.428175231828551 ], [ 115.559382135411667, -8.42810690434669 ], [ 115.559212943551856, -8.428051591623284 ], [ 115.559108825484245, -8.427911682969958 ], [ 115.558965663141322, -8.427810818591983 ], [ 115.558868052452965, -8.427615597215258 ], [ 115.558767188074981, -8.427391092632023 ], [ 115.558705367972351, -8.427199124944895 ], [ 115.558611010973593, -8.426919307638263 ], [ 115.558542683491737, -8.426711071503085 ], [ 115.558448326493007, -8.426528864884801 ], [ 115.558379999011152, -8.42638570254187 ], [ 115.558376745321524, -8.426206749613195 ], [ 115.558435311734542, -8.426151436889796 ], [ 115.558503639216397, -8.426053826201425 ], [ 115.558575220387866, -8.425962722892281 ], [ 115.558760680695769, -8.425526728484247 ], [ 115.55748198067819, -8.423974718539268 ], [ 115.557254222405348, -8.423724184439118 ], [ 115.55698416616751, -8.423515948303951 ], [ 115.556512381173761, -8.423392308098688 ], [ 115.555959253939704, -8.423284936341485 ], [ 115.55559158701351, -8.423053924379026 ], [ 115.555386604567957, -8.422897747277634 ], [ 115.555292247569213, -8.422686257452847 ], [ 115.555051474537905, -8.422305575768222 ], [ 115.554722851887078, -8.421788239119886 ], [ 115.554443034580444, -8.421381527918379 ], [ 115.554172978342606, -8.421056158957168 ], [ 115.55393545900094, -8.420789356408962 ], [ 115.553574299453985, -8.420467241137354 ], [ 115.553200125148592, -8.420125603728085 ], [ 115.552855234049701, -8.419735160974636 ], [ 115.55204506533623, -8.418765561470201 ], [ 115.551570026652882, -8.418160375202346 ], [ 115.55125767245012, -8.417740649242383 ], [ 115.550798902214808, -8.416852391978262 ], [ 115.55068176938876, -8.416627887395027 ], [ 115.550551621804274, -8.416296011054593 ], [ 115.550057060983221, -8.415602975167207 ], [ 115.54989763019222, -8.415397992721633 ], [ 115.549806526883089, -8.415144204931888 ], [ 115.549692647746667, -8.414838358108337 ], [ 115.549569007541407, -8.414454422734114 ], [ 115.54941608412966, -8.414255947667762 ], [ 115.549230623821757, -8.414184366496311 ], [ 115.548947552825481, -8.414194127565139 ], [ 115.548648213381156, -8.414294991943114 ], [ 115.548355381316085, -8.414516242836743 ], [ 115.548176428387407, -8.414672419938125 ], [ 115.547977953321066, -8.414698449455022 ], [ 115.547818522530051, -8.414639883042009 ], [ 115.547704643393629, -8.414506481767905 ], [ 115.547467124051963, -8.414226664461259 ], [ 115.547330469088251, -8.413940339775397 ], [ 115.547040890712779, -8.413273333404899 ], [ 115.546913996817892, -8.412973993960588 ], [ 115.546822893508747, -8.412635610240912 ], [ 115.546692745924261, -8.41216707893677 ], [ 115.546617911063194, -8.411779889872927 ], [ 115.54657886678784, -8.411265806914203 ], [ 115.546533315133303, -8.410644352198286 ], [ 115.546364123273477, -8.409593410453551 ], [ 115.546263258895493, -8.409437233352179 ], [ 115.546136365000635, -8.409183445562428 ], [ 115.54595415838233, -8.408796256498576 ], [ 115.545645057869137, -8.408418828503567 ], [ 115.545443329113198, -8.408142264886541 ], [ 115.545235092978018, -8.407914506613697 ], [ 115.544974797809047, -8.407712777857737 ], [ 115.544834138159928, -8.407591519539528 ], [ 115.545009774972655, -8.407427266594295 ], [ 115.54738171469991, -8.40625593833391 ], [ 115.547362192562247, -8.406350295332667 ], [ 115.547599711903928, -8.40662360526008 ], [ 115.547964125140481, -8.406828587705638 ], [ 115.548455432271922, -8.407492340386524 ], [ 115.548240688757517, -8.407739620797045 ], [ 115.548299255170534, -8.408029199172532 ], [ 115.548409880617385, -8.408208152101206 ], [ 115.548686444234392, -8.408575819027369 ], [ 115.548966261541054, -8.408800323610611 ], [ 115.549317660019156, -8.408963008091222 ], [ 115.549392494880237, -8.409015067125011 ], [ 115.549581208877754, -8.409154975778341 ], [ 115.550004188527325, -8.409425032016147 ], [ 115.550251468937844, -8.409659297668226 ], [ 115.550264483696296, -8.409896817009912 ], [ 115.550417407108057, -8.410039979352836 ], [ 115.550531286244478, -8.41018314169577 ], [ 115.550593106347108, -8.410316542969872 ], [ 115.550635404312061, -8.410449944243972 ], [ 115.550863162584903, -8.410726507861005 ], [ 115.551234083200697, -8.411012832546868 ], [ 115.551507393128105, -8.411253605578173 ], [ 115.551862045295834, -8.411705868434256 ], [ 115.55200846132837, -8.412262249357946 ], [ 115.552132101533658, -8.412571349871088 ], [ 115.552193921636288, -8.412795854454336 ], [ 115.552252488049277, -8.412948777866097 ], [ 115.552516036907875, -8.413371757515673 ], [ 115.552766571008021, -8.413771961337968 ], [ 115.552942270247087, -8.414058286023838 ], [ 115.553163521140732, -8.414344610709714 ], [ 115.553339220379783, -8.414491026742263 ], [ 115.553651574582545, -8.414611413257909 ], [ 115.554194940747777, -8.414722038704721 ], [ 115.555294687836678, -8.415838054241698 ], [ 115.55643022551132, -8.416989860364398 ], [ 115.557168813053238, -8.417569017115362 ], [ 115.557614568530127, -8.417913908214251 ], [ 115.55819697897067, -8.418823314460838 ], [ 115.558535362690321, -8.41930160683382 ], [ 115.558688286102111, -8.419509842969008 ], [ 115.559166578475086, -8.419958852135483 ], [ 115.559339024024524, -8.420033686996554 ], [ 115.559752242605285, -8.420567292092956 ], [ 115.55996698611969, -8.420941466398352 ], [ 115.560191490702934, -8.421813455214407 ], [ 115.560250057115923, -8.422037959797654 ], [ 115.560484322768005, -8.422587833342103 ], [ 115.560568918697925, -8.422997798233229 ], [ 115.561157836517722, -8.423990173564938 ], [ 115.561375833721755, -8.42440013845607 ], [ 115.561740246958308, -8.424946758310913 ], [ 115.562257583606652, -8.425704867990532 ], [ 115.56267080218737, -8.426254741534994 ], [ 115.562973395321308, -8.426775331872934 ], [ 115.563097035526567, -8.427230848418635 ], [ 115.563191392525312, -8.427878332651446 ], [ 115.563656670139864, -8.427715648170841 ], [ 115.564190275236243, -8.427390279209643 ], [ 115.564619762265053, -8.42715601355756 ], [ 115.564688089746909, -8.427048641800351 ], [ 115.564694597126135, -8.426475992428614 ], [ 115.56497116074317, -8.426079042295937 ], [ 115.565677211389001, -8.425538929820314 ], [ 115.566038370935956, -8.425229829307172 ], [ 115.566155503762005, -8.425369737960491 ], [ 115.566227084933459, -8.425675584784036 ], [ 115.566214070174993, -8.426004207434858 ], [ 115.566484126412831, -8.426202682501193 ], [ 115.566666333031108, -8.426310054258405 ], [ 115.566874569166288, -8.42645972398055 ], [ 115.566942896648143, -8.426674467494957 ], [ 115.567073044232629, -8.427022612283459 ], [ 115.567151132783323, -8.427185296764065 ], [ 115.567291041436633, -8.427253624245921 ], [ 115.567437457469183, -8.427243863177086 ], [ 115.567548082916005, -8.427120222971823 ], [ 115.567665215742025, -8.426928255284713 ], [ 115.567782348568045, -8.426775331872939 ], [ 115.567951540427899, -8.426641930598835 ], [ 115.568176045011157, -8.426638676909221 ], [ 115.568371266387871, -8.426778585562554 ], [ 115.568408883317645, -8.426819390367713 ], [ 115.568346050293201, -8.426859927802839 ], [ 115.568259827518503, -8.426903852612593 ], [ 115.568163843674952, -8.426959165336012 ], [ 115.568080874589825, -8.426991702232124 ], [ 115.567986517591095, -8.427066537093213 ], [ 115.567944219626099, -8.427165774626387 ], [ 115.567914936419598, -8.427284534297222 ], [ 115.567849862627369, -8.427448845622637 ], [ 115.567791296214352, -8.427622918016882 ], [ 115.567773400921467, -8.427749811911761 ], [ 115.567791296214352, -8.427941779598868 ], [ 115.567823833110481, -8.428154896268479 ], [ 115.567844982092964, -8.428379400851711 ], [ 115.567814072041614, -8.428457489402401 ], [ 115.567589567458398, -8.428813768414933 ], [ 115.567511478907718, -8.428942289154609 ], [ 115.567311376996557, -8.429070809894295 ], [ 115.567080365034116, -8.429204211168388 ], [ 115.566972993276892, -8.429241628598936 ], [ 115.566781025589776, -8.429295314477525 ], [ 115.566668773298176, -8.429360388269773 ], [ 115.5665158498864, -8.429456372113327 ], [ 115.566349911716173, -8.429562117025721 ], [ 115.56615957087385, -8.429632071352387 ], [ 115.565975737410767, -8.429653220334867 ], [ 115.565471415520889, -8.429645086110835 ], [ 115.564952452027754, -8.429910261814221 ], [ 115.564968720475818, -8.429942798710341 ], [ 115.565019152664803, -8.430014379881818 ], [ 115.565058196940143, -8.430098975811729 ], [ 115.565097241215497, -8.430170556983194 ], [ 115.565092360681049, -8.430222616016994 ], [ 115.565027286888821, -8.43025515291311 ], [ 115.564955705717367, -8.430263287137137 ], [ 115.564906900373174, -8.430292570343655 ], [ 115.564895512459529, -8.430385300497598 ], [ 115.564887378235511, -8.430513821237284 ], [ 115.56489063192511, -8.430606551391216 ], [ 115.56485321449459, -8.430673252028273 ], [ 115.564739335358198, -8.430722057372444 ], [ 115.564641724669812, -8.430761101647802 ], [ 115.564550621360652, -8.430995367299886 ], [ 115.564407459017715, -8.431099485367461 ], [ 115.56424477453713, -8.431223125572728 ], [ 115.564127641711067, -8.431346765777979 ], [ 115.563964957230468, -8.431502942879368 ], [ 115.563646095648494, -8.431737208531445 ], [ 115.563554992339334, -8.431886878253607 ], [ 115.563340248824929, -8.432030040596539 ], [ 115.563031411236139, -8.432184459390935 ] ] ] ] } },
{ "type": "Feature", "properties": { "Banjar": "TIHINGAN KANGIN", "Jiwa_2023": 981, "Area_km2": 0.93, "Densi_2023": 1055 }, "geometry": { "type": "MultiPolygon", "coordinates": [ [ [ [ 115.552979222595056, -8.419875525365583 ], [ 115.551860689591493, -8.421056430097952 ], [ 115.552750031418839, -8.422188714082994 ], [ 115.553266283503987, -8.422800407730078 ], [ 115.553552608189847, -8.423160482713818 ], [ 115.553921359679237, -8.4235032046863 ], [ 115.55419466960663, -8.423728793832749 ], [ 115.554437611764357, -8.424058501046778 ], [ 115.554537391579089, -8.42433181097419 ], [ 115.554658862657959, -8.424921813357194 ], [ 115.554754304219912, -8.425646301577501 ], [ 115.554819378012169, -8.425923949757752 ], [ 115.554910481321286, -8.426175568421089 ], [ 115.554997246377624, -8.426327407269653 ], [ 115.555144746973369, -8.426548658163279 ], [ 115.555175114743079, -8.427060571995595 ], [ 115.555227173776871, -8.427251455119512 ], [ 115.555331291844468, -8.427633221367334 ], [ 115.555465777681775, -8.427897854789117 ], [ 115.555921294227474, -8.428752490593915 ], [ 115.556133868615476, -8.429099550819215 ], [ 115.556159898132378, -8.429342492976918 ], [ 115.556216295418963, -8.429654847179691 ], [ 115.55619026590206, -8.42983705379797 ], [ 115.556272692705548, -8.429949848371193 ], [ 115.556389825531596, -8.430106025472579 ], [ 115.556472252335112, -8.430257864321131 ], [ 115.556476590587934, -8.430448747445048 ], [ 115.556296234659868, -8.430687074921412 ], [ 115.556193519591744, -8.430623633261698 ], [ 115.556011312973467, -8.43047070984993 ], [ 115.555871404320143, -8.430317786438152 ], [ 115.555676182943401, -8.430142087199089 ], [ 115.555367082430266, -8.429803703479429 ], [ 115.555207651639265, -8.429517378793561 ], [ 115.555018937641748, -8.429325411106454 ], [ 115.554906685350147, -8.429178995073894 ], [ 115.554830223644245, -8.429026071662122 ], [ 115.554682180766903, -8.428604718857363 ], [ 115.554560167406464, -8.428476198117679 ], [ 115.554418631908334, -8.428313513637061 ], [ 115.554078621343862, -8.428017427882356 ], [ 115.553837848312554, -8.427786415919899 ], [ 115.553603582660486, -8.427500091234021 ], [ 115.553395346525306, -8.427301616167682 ], [ 115.553265198940821, -8.427132424307857 ], [ 115.552946337358819, -8.426699683589433 ], [ 115.552324882642864, -8.426022916150105 ], [ 115.551869366097179, -8.425544623777125 ], [ 115.55154399713598, -8.425375431917297 ], [ 115.551352029448879, -8.425163942092507 ], [ 115.551218628174766, -8.424952452267714 ], [ 115.551114510107197, -8.424747469822142 ], [ 115.551072212142216, -8.424477413584336 ], [ 115.551062451073378, -8.424233386863431 ], [ 115.550938810868118, -8.424080463451661 ], [ 115.550776126387504, -8.423868973626865 ], [ 115.550564636562711, -8.423712796525482 ], [ 115.550284819256063, -8.423511067769532 ], [ 115.550079836810525, -8.423397188633109 ], [ 115.549832556399991, -8.423250772600566 ], [ 115.549445367336133, -8.423068565982284 ], [ 115.549224116442517, -8.422931911018562 ], [ 115.549077700409967, -8.422837554019821 ], [ 115.548941045446256, -8.422587019919687 ], [ 115.548771853586445, -8.422469887093643 ], [ 115.548563617451265, -8.422313709992267 ], [ 115.548479021521345, -8.422160786580488 ], [ 115.548313083351132, -8.421874461894625 ], [ 115.548134130422454, -8.421591390898357 ], [ 115.547763209806689, -8.420882086562921 ], [ 115.547613540084512, -8.420690118875804 ], [ 115.547369513363606, -8.42041355525877 ], [ 115.547096203436197, -8.42004588833259 ], [ 115.546819639819134, -8.419603386545345 ], [ 115.546669970096985, -8.419284524963357 ], [ 115.546399913859162, -8.418881067451437 ], [ 115.545905353038108, -8.418399521388849 ], [ 115.545521417663892, -8.418074152427634 ], [ 115.545241600357258, -8.417865916292444 ], [ 115.545072408497404, -8.417820364637878 ], [ 115.544701487881596, -8.417657680157276 ], [ 115.544467222229528, -8.417303027989554 ], [ 115.544314298817767, -8.417133836129722 ], [ 115.543754664204471, -8.416489605586515 ], [ 115.543836006444792, -8.416252086244832 ], [ 115.543894572857781, -8.416011313213527 ], [ 115.544073525786459, -8.415721734838041 ], [ 115.544063764717635, -8.415373590049544 ], [ 115.544115823751426, -8.415259710913119 ], [ 115.544223195508621, -8.415038460019485 ], [ 115.544721010019259, -8.414130680617697 ], [ 115.545111452772716, -8.413805311656487 ], [ 115.545511656595011, -8.413291228697769 ], [ 115.545410792217012, -8.41323266228475 ], [ 115.545306674149458, -8.413148066354832 ], [ 115.545036617911634, -8.41302117245996 ], [ 115.544916231396002, -8.412861741668969 ], [ 115.544786083811516, -8.412660012913008 ], [ 115.544590862434774, -8.412357419779068 ], [ 115.544437939022998, -8.412113393058169 ], [ 115.544180897543626, -8.411719696615087 ], [ 115.544050749959169, -8.411654622822855 ], [ 115.544444446402224, -8.41034013221954 ], [ 115.544789337501115, -8.408657974690071 ], [ 115.544792591190728, -8.408560364001694 ], [ 115.544808859638792, -8.408143891731349 ], [ 115.544823852829481, -8.407601138228184 ], [ 115.544834138159928, -8.407591519539528 ], [ 115.544974797809047, -8.407712777857737 ], [ 115.545235092978018, -8.407914506613697 ], [ 115.545443329113198, -8.408142264886541 ], [ 115.545645057869137, -8.408418828503567 ], [ 115.54595415838233, -8.408796256498576 ], [ 115.546136365000635, -8.409183445562428 ], [ 115.546263258895493, -8.409437233352179 ], [ 115.546364123273477, -8.409593410453551 ], [ 115.546533315133303, -8.410644352198286 ], [ 115.54657886678784, -8.411265806914203 ], [ 115.546617911063194, -8.411779889872927 ], [ 115.546692745924261, -8.41216707893677 ], [ 115.546822893508747, -8.412635610240912 ], [ 115.546913996817892, -8.412973993960588 ], [ 115.547040890712779, -8.413273333404899 ], [ 115.547330469088251, -8.413940339775397 ], [ 115.547467124051963, -8.414226664461259 ], [ 115.547704643393629, -8.414506481767905 ], [ 115.547818522530051, -8.414639883042009 ], [ 115.547977953321066, -8.414698449455022 ], [ 115.548176428387407, -8.414672419938125 ], [ 115.548355381316085, -8.414516242836743 ], [ 115.548648213381156, -8.414294991943114 ], [ 115.548947552825481, -8.414194127565139 ], [ 115.549230623821757, -8.414184366496311 ], [ 115.54941608412966, -8.414255947667762 ], [ 115.549569007541407, -8.414454422734114 ], [ 115.549692647746667, -8.414838358108337 ], [ 115.549806526883089, -8.415144204931888 ], [ 115.54989763019222, -8.415397992721633 ], [ 115.550057060983221, -8.415602975167207 ], [ 115.550551621804274, -8.416296011054593 ], [ 115.55068176938876, -8.416627887395027 ], [ 115.550798902214808, -8.416852391978262 ], [ 115.55125767245012, -8.417740649242383 ], [ 115.551570026652882, -8.418160375202346 ], [ 115.55204506533623, -8.418765561470201 ], [ 115.552855234049701, -8.419735160974636 ], [ 115.552979222595056, -8.419875525365583 ] ] ] ] } },
{ "type": "Feature", "properties": { "Banjar": "DUKUH", "Jiwa_2023": 786, "Area_km2": 0.804, "Densi_2023": 978 }, "geometry": { "type": "MultiPolygon", "coordinates": [ [ [ [ 115.556296234659868, -8.430687074921412 ], [ 115.556476590587934, -8.430448747445048 ], [ 115.556472252335112, -8.430257864321131 ], [ 115.556389825531596, -8.430106025472579 ], [ 115.556272692705548, -8.429949848371193 ], [ 115.55619026590206, -8.42983705379797 ], [ 115.556216295418963, -8.429654847179691 ], [ 115.556159898132378, -8.429342492976918 ], [ 115.556133868615476, -8.429099550819215 ], [ 115.555921294227474, -8.428752490593915 ], [ 115.555465777681775, -8.427897854789117 ], [ 115.555331291844468, -8.427633221367334 ], [ 115.555227173776871, -8.427251455119512 ], [ 115.555175114743079, -8.427060571995595 ], [ 115.555144746973369, -8.426548658163279 ], [ 115.554997246377624, -8.426327407269653 ], [ 115.554910481321286, -8.426175568421089 ], [ 115.554819378012169, -8.425923949757752 ], [ 115.554754304219912, -8.425646301577501 ], [ 115.554658862657959, -8.424921813357194 ], [ 115.554537391579089, -8.42433181097419 ], [ 115.554437611764357, -8.424058501046778 ], [ 115.55419466960663, -8.423728793832749 ], [ 115.553921359679237, -8.4235032046863 ], [ 115.553552608189847, -8.423160482713818 ], [ 115.553266283503987, -8.422800407730078 ], [ 115.552750031418839, -8.422188714082994 ], [ 115.551860689591493, -8.421056430097952 ], [ 115.552979222595056, -8.419875525365583 ], [ 115.553200125148592, -8.420125603728085 ], [ 115.553574299453985, -8.420467241137354 ], [ 115.55393545900094, -8.420789356408962 ], [ 115.554172978342606, -8.421056158957168 ], [ 115.554443034580444, -8.421381527918379 ], [ 115.554722851887078, -8.421788239119886 ], [ 115.555051474537905, -8.422305575768222 ], [ 115.555292247569213, -8.422686257452847 ], [ 115.555386604567957, -8.422897747277634 ], [ 115.55559158701351, -8.423053924379026 ], [ 115.555959253939704, -8.423284936341485 ], [ 115.556512381173761, -8.423392308098688 ], [ 115.55698416616751, -8.423515948303951 ], [ 115.557254222405348, -8.423724184439118 ], [ 115.55748198067819, -8.423974718539268 ], [ 115.558760680695769, -8.425526728484247 ], [ 115.558575220387866, -8.425962722892281 ], [ 115.558503639216397, -8.426053826201425 ], [ 115.558435311734542, -8.426151436889796 ], [ 115.558376745321524, -8.426206749613195 ], [ 115.558379999011152, -8.42638570254187 ], [ 115.558448326493007, -8.426528864884801 ], [ 115.558542683491737, -8.426711071503085 ], [ 115.558611010973593, -8.426919307638263 ], [ 115.558705367972351, -8.427199124944895 ], [ 115.558767188074981, -8.427391092632023 ], [ 115.558868052452965, -8.427615597215258 ], [ 115.558965663141322, -8.427810818591983 ], [ 115.559108825484245, -8.427911682969958 ], [ 115.559212943551856, -8.428051591623284 ], [ 115.559382135411667, -8.42810690434669 ], [ 115.559557834650747, -8.428175231828551 ], [ 115.559866935163882, -8.42825332037923 ], [ 115.560241109469303, -8.428334662619537 ], [ 115.560517673086309, -8.428341169998761 ], [ 115.560810505151409, -8.428370453205272 ], [ 115.561109844595734, -8.428393229032563 ], [ 115.561334349178978, -8.428458302824806 ], [ 115.56150028734919, -8.428546152444325 ], [ 115.561715030863596, -8.42872185168339 ], [ 115.561856566361726, -8.428977266317945 ], [ 115.562006236083874, -8.429231054107685 ], [ 115.562072936720924, -8.429403499657132 ], [ 115.562151025271618, -8.429706092791063 ], [ 115.56222748697752, -8.429909448391827 ], [ 115.562406439906141, -8.430462575625887 ], [ 115.562595153903658, -8.431022210239179 ], [ 115.56269927197124, -8.43131178861465 ], [ 115.562809897418063, -8.431591605921311 ], [ 115.562904254416807, -8.431822617883773 ], [ 115.562979089277903, -8.432008078191659 ], [ 115.563005118794791, -8.432118703638464 ], [ 115.563017320130854, -8.432171576094673 ], [ 115.563031411236139, -8.432184459390935 ], [ 115.563027894622167, -8.432186217697923 ], [ 115.563145027448186, -8.432413975970771 ], [ 115.563275175032672, -8.432739344931999 ], [ 115.563340248824929, -8.432986625342513 ], [ 115.563411829996397, -8.433285964786824 ], [ 115.563522455443206, -8.433591811610366 ], [ 115.563650199405728, -8.43399548253192 ], [ 115.563403695772323, -8.434179102585361 ], [ 115.563104356328026, -8.434416621927058 ], [ 115.562840807469428, -8.434634619131062 ], [ 115.562587019679682, -8.434839601576638 ], [ 115.56227466547692, -8.435090135676777 ], [ 115.561991594480659, -8.435246312778155 ], [ 115.561526316866107, -8.435496846878292 ], [ 115.561002472838567, -8.435760395736878 ], [ 115.560701506549421, -8.435861260114848 ], [ 115.560517673086338, -8.435975139251276 ], [ 115.560150006160171, -8.436191509610479 ], [ 115.559696116459278, -8.435291864432726 ], [ 115.558933126245208, -8.435609099169907 ], [ 115.558485514338827, -8.435785235263047 ], [ 115.558470288897809, -8.435777070896139 ], [ 115.558407655372775, -8.435707523280678 ], [ 115.558249851426581, -8.435531824041613 ], [ 115.558039988446623, -8.435318707372016 ], [ 115.557880557655636, -8.435146261822572 ], [ 115.55769347050294, -8.43491036932569 ], [ 115.557599113504153, -8.434785102275621 ], [ 115.557506383350244, -8.434614283570998 ], [ 115.557434802178761, -8.434484135986496 ], [ 115.557387623679375, -8.434336093109144 ], [ 115.557330684111164, -8.434202691835063 ], [ 115.557288386146212, -8.434000963079097 ], [ 115.557272117698147, -8.43386268127057 ], [ 115.55729163983581, -8.433364866759915 ], [ 115.55725747609489, -8.432972797161661 ], [ 115.557242834491646, -8.432860544870046 ], [ 115.557187521768228, -8.432686472475787 ], [ 115.557143596958468, -8.432593742321837 ], [ 115.55709479161429, -8.432501012167904 ], [ 115.55711756744158, -8.432346461911314 ], [ 115.557166372785744, -8.432278134429474 ], [ 115.557197282837052, -8.432206553257998 ], [ 115.557177760699389, -8.432097554655986 ], [ 115.557080150011032, -8.431944631244225 ], [ 115.557003688305159, -8.431840513176626 ], [ 115.556818227997255, -8.431612754903771 ], [ 115.556717363619256, -8.431474473095271 ], [ 115.556609991862075, -8.431194655788614 ], [ 115.556541664380219, -8.43102871761841 ], [ 115.556466829519152, -8.430882301585847 ], [ 115.556333428245068, -8.430752154001375 ], [ 115.556304145038567, -8.430691960743543 ], [ 115.556296234659868, -8.430687074921412 ] ] ] ] } },
{ "type": "Feature", "properties": { "Banjar": "TIHINGSEKA", "Jiwa_2023": 806, "Area_km2": 0.577, "Densi_2023": 1397 }, "geometry": { "type": "MultiPolygon", "coordinates": [ [ [ [ 115.546931637598234, -8.419782582991855 ], [ 115.545916198670142, -8.420553192771273 ], [ 115.544948768292102, -8.42127334273877 ], [ 115.544345751150658, -8.421425181587331 ], [ 115.543768763526103, -8.421577020435905 ], [ 115.543155985315806, -8.421670292871465 ], [ 115.542949918307045, -8.421675715687487 ], [ 115.542904843183976, -8.421733669417115 ], [ 115.542903824371166, -8.421728859284482 ], [ 115.541270472185829, -8.421898051144309 ], [ 115.541296501702732, -8.421702829767574 ], [ 115.541114295084455, -8.421357938668688 ], [ 115.541023191775324, -8.420856870468423 ], [ 115.540775911364761, -8.419874256205551 ], [ 115.540593704746485, -8.418963223114153 ], [ 115.540619734263402, -8.417791894853776 ], [ 115.540671793297207, -8.417167186448255 ], [ 115.54060021212571, -8.416594537076509 ], [ 115.540541645712722, -8.416412330458229 ], [ 115.540300872681414, -8.415742070398123 ], [ 115.54002105537478, -8.414909125857411 ], [ 115.540073114408571, -8.413835408285399 ], [ 115.540281350543751, -8.413529561461861 ], [ 115.540326902198302, -8.413145626087625 ], [ 115.540671793297207, -8.412481873406742 ], [ 115.54124444266894, -8.412280144650801 ], [ 115.541823599419899, -8.411746539554404 ], [ 115.54229213072405, -8.411408155834732 ], [ 115.542702095615198, -8.411115323769639 ], [ 115.543164119540108, -8.410685836740841 ], [ 115.543535040155902, -8.410373482538073 ], [ 115.543958019805487, -8.409761788890989 ], [ 115.544270374008249, -8.409325794482962 ], [ 115.544628279865577, -8.408219540014825 ], [ 115.544625026175979, -8.407982020673142 ], [ 115.544658376494539, -8.407755889245111 ], [ 115.544823852829481, -8.407601138228184 ], [ 115.544808859638792, -8.408143891731349 ], [ 115.544792591190728, -8.408560364001694 ], [ 115.544789337501115, -8.408657974690071 ], [ 115.544444446402224, -8.41034013221954 ], [ 115.544050749959169, -8.411654622822855 ], [ 115.544180897543626, -8.411719696615087 ], [ 115.544437939022998, -8.412113393058169 ], [ 115.544590862434774, -8.412357419779068 ], [ 115.544786083811516, -8.412660012913008 ], [ 115.544916231396002, -8.412861741668969 ], [ 115.545036617911634, -8.41302117245996 ], [ 115.545306674149458, -8.413148066354832 ], [ 115.545410792217012, -8.41323266228475 ], [ 115.545511656595011, -8.413291228697769 ], [ 115.545111452772716, -8.413805311656487 ], [ 115.544721010019259, -8.414130680617697 ], [ 115.544223195508621, -8.415038460019485 ], [ 115.544115823751426, -8.415259710913119 ], [ 115.544063764717635, -8.415373590049544 ], [ 115.544073525786459, -8.415721734838041 ], [ 115.543894572857781, -8.416011313213527 ], [ 115.543836006444792, -8.416252086244832 ], [ 115.543754664204471, -8.416489605586515 ], [ 115.544314298817767, -8.417133836129722 ], [ 115.544467222229528, -8.417303027989554 ], [ 115.544701487881596, -8.417657680157276 ], [ 115.545072408497404, -8.417820364637878 ], [ 115.545241600357258, -8.417865916292444 ], [ 115.545521417663892, -8.418074152427634 ], [ 115.545905353038108, -8.418399521388849 ], [ 115.546399913859162, -8.418881067451437 ], [ 115.546669970096985, -8.419284524963357 ], [ 115.546819639819134, -8.419603386545345 ], [ 115.546931637598234, -8.419782582991855 ] ] ] ] } },
{ "type": "Feature", "properties": { "Banjar": "TIHINGAN TENGAH", "Jiwa_2023": 1241, "Area_km2": 0.867, "Densi_2023": 1431 }, "geometry": { "type": "MultiPolygon", "coordinates": [ [ [ [ 115.552997743352421, -8.438281457323086 ], [ 115.553054793679308, -8.438103594539344 ], [ 115.553089499701827, -8.437869328887263 ], [ 115.553037440668021, -8.437730504797139 ], [ 115.552772807246228, -8.436988663565563 ], [ 115.552616630144854, -8.436520132261407 ], [ 115.552521188582887, -8.436324910884679 ], [ 115.552447438285014, -8.43609498348542 ], [ 115.552425747020933, -8.435830350063643 ], [ 115.552447438285014, -8.435439907310172 ], [ 115.552451776537836, -8.434914978719418 ], [ 115.552434423526577, -8.434628654033535 ], [ 115.552382364492786, -8.434455123920891 ], [ 115.552208834380139, -8.433999607375188 ], [ 115.552056995531558, -8.433574458599203 ], [ 115.551900818430198, -8.433153648076013 ], [ 115.551801038615409, -8.432936735435215 ], [ 115.551640523261227, -8.432776220081008 ], [ 115.551406257609131, -8.432580998704271 ], [ 115.551224050990854, -8.432307688776865 ], [ 115.551007138350059, -8.431947613793104 ], [ 115.550855299501464, -8.431561509292463 ], [ 115.550703460652912, -8.431179743044629 ], [ 115.550647063366299, -8.430884741853134 ], [ 115.550499562770554, -8.430533343375012 ], [ 115.550330370910714, -8.430325107239844 ], [ 115.550117796522713, -8.429991061772988 ], [ 115.549757721538981, -8.429544221732922 ], [ 115.54940632306085, -8.429175470243536 ], [ 115.548946468262315, -8.428776350984451 ], [ 115.548725217368684, -8.428589806113344 ], [ 115.548660143576456, -8.428429290759142 ], [ 115.548668820082071, -8.428056201016947 ], [ 115.548525657739148, -8.427813258859246 ], [ 115.548343451120871, -8.427526934173379 ], [ 115.548178597513854, -8.427223256476232 ], [ 115.547957346620208, -8.426867519745306 ], [ 115.547853228552626, -8.426581195059427 ], [ 115.548451907441247, -8.426260164351024 ], [ 115.548772938149654, -8.426073619479933 ], [ 115.549172057408754, -8.425856706839118 ], [ 115.549770736297404, -8.425513984866642 ], [ 115.549640588712904, -8.424832879174485 ], [ 115.549805442319894, -8.424496664581239 ], [ 115.549942097283633, -8.424177802999239 ], [ 115.550048384477634, -8.423932691715127 ], [ 115.550182870314941, -8.423683242178184 ], [ 115.550169855556476, -8.423568278478553 ], [ 115.550269772107015, -8.423502708242266 ], [ 115.550284819256063, -8.423511067769532 ], [ 115.550564636562711, -8.423712796525482 ], [ 115.550776126387504, -8.423868973626865 ], [ 115.550938810868118, -8.424080463451661 ], [ 115.551062451073378, -8.424233386863431 ], [ 115.551072212142216, -8.424477413584336 ], [ 115.551114510107197, -8.424747469822142 ], [ 115.551218628174766, -8.424952452267714 ], [ 115.551352029448879, -8.425163942092507 ], [ 115.55154399713598, -8.425375431917297 ], [ 115.551869366097179, -8.425544623777125 ], [ 115.552324882642864, -8.426022916150105 ], [ 115.552946337358819, -8.426699683589433 ], [ 115.553265198940821, -8.427132424307857 ], [ 115.553395346525306, -8.427301616167682 ], [ 115.553603582660486, -8.427500091234021 ], [ 115.553837848312554, -8.427786415919899 ], [ 115.554078621343862, -8.428017427882356 ], [ 115.554418631908334, -8.428313513637061 ], [ 115.554560167406464, -8.428476198117679 ], [ 115.554682180766903, -8.428604718857363 ], [ 115.554830223644245, -8.429026071662122 ], [ 115.554906685350147, -8.429178995073894 ], [ 115.555018937641748, -8.429325411106454 ], [ 115.555207651639265, -8.429517378793561 ], [ 115.555367082430266, -8.429803703479429 ], [ 115.555676182943401, -8.430142087199089 ], [ 115.555871404320143, -8.430317786438152 ], [ 115.556011312973467, -8.43047070984993 ], [ 115.556193519591744, -8.430623633261698 ], [ 115.556304145038567, -8.430691960743543 ], [ 115.556333428245068, -8.430752154001375 ], [ 115.556466829519152, -8.430882301585847 ], [ 115.556541664380219, -8.43102871761841 ], [ 115.556609991862075, -8.431194655788614 ], [ 115.556717363619256, -8.431474473095271 ], [ 115.556818227997255, -8.431612754903771 ], [ 115.557003688305159, -8.431840513176626 ], [ 115.557080150011032, -8.431944631244225 ], [ 115.557177760699389, -8.432097554655986 ], [ 115.557197282837052, -8.432206553257998 ], [ 115.557166372785744, -8.432278134429474 ], [ 115.55711756744158, -8.432346461911314 ], [ 115.55709479161429, -8.432501012167904 ], [ 115.557143596958468, -8.432593742321837 ], [ 115.557187521768228, -8.432686472475787 ], [ 115.557242834491646, -8.432860544870046 ], [ 115.55725747609489, -8.432972797161661 ], [ 115.55729163983581, -8.433364866759915 ], [ 115.557272117698147, -8.43386268127057 ], [ 115.557288386146212, -8.434000963079097 ], [ 115.557330684111164, -8.434202691835063 ], [ 115.557387623679375, -8.434336093109144 ], [ 115.557434802178761, -8.434484135986496 ], [ 115.557506383350244, -8.434614283570998 ], [ 115.557599113504153, -8.434785102275621 ], [ 115.55769347050294, -8.43491036932569 ], [ 115.557880557655636, -8.435146261822572 ], [ 115.558039988446623, -8.435318707372016 ], [ 115.558249851426581, -8.435531824041613 ], [ 115.558407655372775, -8.435707523280678 ], [ 115.558470288897809, -8.435777070896139 ], [ 115.558485514338827, -8.435785235263047 ], [ 115.558482490233942, -8.435786425253779 ], [ 115.558736278023687, -8.436006049302591 ], [ 115.558897335659481, -8.436177681429632 ], [ 115.558976237632606, -8.436272038428385 ], [ 115.558965646872934, -8.436312010005178 ], [ 115.558968916830977, -8.436289120298847 ], [ 115.558897335659537, -8.436344433022251 ], [ 115.558640294180137, -8.436612862415258 ], [ 115.558378372166359, -8.436874784429037 ], [ 115.558215687685745, -8.437026080996002 ], [ 115.558105062238923, -8.437144840666848 ], [ 115.557890318724546, -8.437362837870852 ], [ 115.557649545693238, -8.437610118281384 ], [ 115.557237953957284, -8.43804123215499 ], [ 115.556990673546764, -8.438268990427844 ], [ 115.556831242755791, -8.438407272236352 ], [ 115.556709229395324, -8.438486987631865 ], [ 115.556522142242628, -8.438635030509204 ], [ 115.556331801400304, -8.438784700231357 ], [ 115.556188639057382, -8.438895325678171 ], [ 115.556048730404058, -8.438989682676924 ], [ 115.555820972131187, -8.439176769829627 ], [ 115.55503032555545, -8.438625269440362 ], [ 115.554210395773183, -8.438049366379023 ], [ 115.553003276927086, -8.438277124651862 ], [ 115.552997743352421, -8.438281457323086 ] ] ] ] } }
]
}
